ORBCOMM-X               
1 21576U 91050C   25090.79760812  .00000712  00000+0  22474-3 0  9993
2 21576  98.3498 158.9533 0004681  70.2246 289.9449 14.43175464770950
ORBCOMM FM01            
1 23545U 95017A   25090.84054259  .00011720  00000+0  12569-2 0  9999
2 23545  69.9630 266.8503 0000380 146.4419 213.6759 14.88797055600995
ORBCOMM FM02            
1 23546U 95017B   25090.88867995  .00014082  00000+0  14875-2 0  9999
2 23546  69.9647 286.3319 0001603  98.9256 261.2079 14.89348034600641
ORBCOMM FM08            
1 25112U 97084A   25090.85267825  .00003138  00000+0  92260-3 0  9994
2 25112  45.0151  19.0199 0005668 229.1068 130.9293 14.45457691430180
ORBCOMM FM10            
1 25113U 97084B   25090.82249868  .00003416  00000+0  10050-2 0  9994
2 25113  45.0161  21.4110 0003352 192.7163 167.3604 14.45246989605327
ORBCOMM FM11            
1 25114U 97084C   25090.81375883  .00003387  00000+0  10019-2 0  9993
2 25114  45.0147  21.9465 0004187 193.2289 166.8453 14.45001580430285
ORBCOMM FM12            
1 25115U 97084D   25090.84654853  .00003024  00000+0  89865-3 0  9998
2 25115  45.0157  21.5481 0003147 192.8999 167.1772 14.45025010430089
ORBCOMM FM09            
1 25116U 97084E   25090.80327177  .00003074  00000+0  91478-3 0  9999
2 25116  45.0160  22.6135 0004352 173.8174 186.2732 14.44912220430282
